OBJECT_NAME,OBJECT_ID,EPOCH,MEAN_MOTION,ECCENTRICITY,INCLINATION,RA_OF_ASC_NODE,ARG_OF_PERICENTER,MEAN_ANOMALY,EPHEMERIS_TYPE,CLASSIFICATION_TYPE,NORAD_CAT_ID,ELEMENT_SET_NO,REV_AT_EPOCH,BSTAR,MEAN_MOTION_DOT,MEAN_MOTION_DDOT
HST,1990-037B,2026-07-13T11:30:45.235872,15.31050347,.00022052,28.4725,260.8360,88.3061,271.7788,0,U,20580,999,79260,.11486938E-3,.3777E-4,0
POLAR,1996-013A,2026-07-13T05:24:03.157920,1.29846073,.6496555,79.8886,226.7431,208.1823,91.5623,0,U,23802,999,14519,0,.225E-5,0
SWAS,1998-071A,2026-07-13T09:16:17.115744,15.09740592,.0008066,69.8938,159.9492,232.5585,127.4846,0,U,25560,999,50122,.10938878E-3,.1664E-4,0
CXO,1999-040B,2026-07-14T19:45:30.683520,0.37803281,.77946086,56.5906,115.8556,310.0752,0.4008,0,U,25867,999,1742,0,.664E-5,0
XMM-NEWTON,1999-066A,2026-07-12T06:46:16.393152,0.50124873,.46682181,64.3559,282.6652,64.4827,0.1151,0,U,25989,999,2313,0,.88E-6,0
TERRA,1999-068A,2026-07-13T16:00:36.792864,14.61122991,.00033487,97.9443,243.1616,125.8536,348.4092,0,U,25994,999,41347,.4831979E-4,.193E-5,0
CLUSTER II-FM7 (SAMBA),2000-041A,2026-07-11T16:19:30.897408,0.44896530,.90823116,149.8437,55.3938,272.8334,359.6328,0,U,26410,999,2042,0,.12833E-3,0
CLUSTER II-FM8 (TANGO),2000-045B,2026-07-12T04:48:07.342272,0.44413276,.9087598,150.0475,56.7154,274.0139,2.1073,0,U,26464,999,2042,0,.13279E-3,0
ODIN,2001-007A,2026-07-13T14:32:39.563808,15.88613949,.00048398,97.3734,237.4616,144.0406,216.1193,0,U,26702,999,39357,.97965113E-3,.271366E-2,.2850657E-4
TIMED,2001-055B,2026-07-13T08:50:20.007168,14.95342403,.00021818,74.0665,182.3007,302.6901,57.4073,0,U,26998,999,33473,.57206587E-4,.591E-5,0
CORIOLIS,2003-001A,2026-07-13T14:54:59.244192,14.19951526,.0014839,98.7134,201.1031,133.3650,226.8765,0,U,27640,999,21797,.45514052E-4,.53E-6,0
SORCE,2003-004A,2026-07-13T04:08:34.366272,15.03836025,.00185763,39.9908,113.4042,240.8928,119.0006,0,U,27651,999,27581,.11990288E-3,.1531E-4,0
MOST,2003-031D,2026-07-13T12:57:04.629888,14.21327477,.00099742,98.7052,201.8982,169.7404,190.3978,0,U,27843,999,19445,.29959647E-4,.22E-6,0
SCISAT 1,2003-036A,2026-07-13T05:22:58.985184,14.81477673,.0007465,73.9302,119.6108,188.1685,171.9371,0,U,27858,999,23530,.44741E-4,.314E-5,0
SWIFT,2004-047A,2026-07-13T11:56:20.176800,15.71028411,.00018804,20.5531,341.5542,5.0706,354.9759,0,U,28485,999,19100,.3172673E-3,.42865E-3,0
HINODE (SOLAR-B),2006-041A,2026-07-13T14:53:09.408192,14.68657101,.00169203,98.0549,210.3831,199.5513,160.5045,0,U,29479,999,5875,.63564974E-4,.321E-5,0
SHIJIAN-6 02A (SJ-6 02A),2006-046A,2026-07-13T14:33:16.246656,15.17236496,.00044125,97.6348,235.8743,66.4783,293.6913,0,U,29505,999,7627,.25077797E-3,.492E-4,0
SHIJIAN-6 02B (SJ-6 02B),2006-046B,2026-07-13T14:30:45.846720,15.01436693,.00135805,97.7152,223.4998,341.8631,18.2107,0,U,29506,999,7470,.64433439E-4,.772E-5,0
FGRST (GLAST),2008-029A,2026-07-12T21:28:52.934304,15.24068637,.00077459,25.5828,25.9616,270.8522,89.1128,0,U,33053,999,99976,.74759892E-4,.2204E-4,0
SDO,2010-005A,2026-07-13T04:48:29.839968,1.00277100,.0001955,34.7041,85.9474,51.9513,123.0341,0,U,36395,999,6032,0,-.107E-5,0
CRYOSAT 2,2010-013A,2026-07-13T14:46:43.288320,14.51898004,.0002368,92.0359,283.7266,98.5639,261.5837,0,U,36508,999,86191,.30122914E-4,.124E-5,0
X-SAT,2011-015C,2026-07-13T14:56:39.214176,14.25213892,.00127019,98.3519,170.3889,266.0940,93.8788,0,U,37389,999,79144,.72844623E-4,.13E-5,0
GCOM-W1 (SHIZUKU),2012-025A,2026-07-13T09:51:54.876384,14.57089300,.00013333,98.2024,134.5702,77.2653,33.1925,0,U,38337,999,75285,.57227209E-4,.213E-5,0
NUSTAR,2012-031A,2026-07-13T16:00:01.999584,15.09037024,.00072726,6.0256,195.4812,153.6181,168.4088,0,U,38358,999,130,.23377057E-3,.4671E-4,0
NEOSSAT,2013-009D,2026-07-13T11:33:01.346976,14.35835248,.00113495,98.4188,13.8901,162.1759,197.9828,0,U,39089,999,70051,.36035666E-4,.62E-6,0
BRITE-AUSTRIA,2013-009F,2026-07-13T11:12:11.478528,14.36552090,.00106667,98.4006,13.2537,155.6045,204.5649,0,U,39091,999,70082,.43851105E-4,.86E-6,0
IRIS,2013-033A,2026-07-13T11:52:31.518336,14.85934939,.00232246,97.9319,33.6889,230.8914,129.0237,0,U,39197,999,70428,.66006061E-4,.522E-5,0
HISAKI (SPRINT-A),2013-049A,2026-07-12T23:30:00.322560,13.55546585,.01369448,29.7206,88.8790,225.9387,132.9837,0,U,39253,999,63492,.1457994E-4,.78E-6,0
CASSIOPE,2013-055A,2026-07-13T12:20:58.645824,15.27349248,.02831969,80.9124,34.6894,333.6039,25.0990,0,U,39265,999,67168,.23124323E-3,.21565E-3,-.538015E-6
STSAT-3,2013-066G,2026-07-13T14:42:26.502336,15.02879816,.00089525,97.6186,164.0744,311.9811,48.0651,0,U,39422,999,68817,.93569982E-4,.1195E-4,0
