HST                     
1 20580U 90037B   26194.47969023  .00003777  00000+0  11487-3 0  9993
2 20580  28.4725 260.8360 0002205  88.3061 271.7788 15.31050347792608
POLAR                   
1 23802U 96013A   26194.22503655  .00000225  00000+0  00000+0 0  9991
2 23802  79.8886 226.7431 6496555 208.1823  91.5623  1.29846073145198
SWAS                    
1 25560U 98071A   26194.38630921  .00001664  00000+0  10939-3 0  9998
2 25560  69.8938 159.9492 0008066 232.5585 127.4846 15.09740592501226
CXO                     
1 25867U 99040B   26195.82327180  .00000664  00000+0  00000+0 0  9998
2 25867  56.5906 115.8556 7794608 310.0752   0.4008  0.37803281 17429
XMM-NEWTON              
1 25989U 99066A   26193.28213418  .00000088  00000+0  00000+0 0  9997
2 25989  64.3559 282.6652 4668218  64.4827   0.1151  0.50124873 23131
TERRA                   
1 25994U 99068A   26194.66709251  .00000193  00000+0  48320-4 0  9992
2 25994  97.9443 243.1616 0003348 125.8536 348.4092 14.61122991413473
CLUSTER II-FM7 (SAMBA)  
1 26410U 00041A   26192.68021872  .00012833  00000+0  00000+0 0  9997
2 26410 149.8437  55.3938 9082311 272.8334 359.6328  0.44896530 20420
CLUSTER II-FM8 (TANGO)  
1 26464U 00045B   26193.20008498  .00013279  00000+0  00000+0 0  9993
2 26464 150.0475  56.7154 9087598 274.0139   2.1073  0.44413276 20428
ODIN                    
1 26702U 01007A   26194.60601347  .00271366  28507-4  97965-3 0  9994
2 26702  97.3734 237.4616 0004839 144.0406 216.1193 15.88613949393578
TIMED                   
1 26998U 01055B   26194.36828712  .00000591  00000+0  57207-4 0  9993
2 26998  74.0665 182.3007 0002181 302.6901  57.4073 14.95342403334739
CORIOLIS                
1 27640U 03001A   26194.62151903  .00000053  00000+0  45514-4 0  9992
2 27640  98.7134 201.1031 0014839 133.3650 226.8765 14.19951526217972
SORCE                   
1 27651U 03004A   26194.17261998  .00001531  00000+0  11990-3 0  9995
2 27651  39.9908 113.4042 0018576 240.8928 119.0006 15.03836025275819
MOST                    
1 27843U 03031D   26194.53963692  .00000022  00000+0  29960-4 0  9999
2 27843  98.7052 201.8982 0009974 169.7404 190.3978 14.21327477194455
SCISAT 1                
1 27858U 03036A   26194.22429381  .00000314  00000+0  44741-4 0  9996
2 27858  73.9302 119.6108 0007465 188.1685 171.9371 14.81477673235301
SWIFT                   
1 28485U 04047A   26194.49745575  .00042865  00000+0  31727-3 0  9997
2 28485  20.5531 341.5542 0001880   5.0706 354.9759 15.71028411191007
HINODE (SOLAR-B)        
1 29479U 06041A   26194.62024778  .00000321  00000+0  63565-4 0  9994
2 29479  98.0549 210.3831 0016920 199.5513 160.5045 14.68657101 58752
SHIJIAN-6 02A (SJ-6 02A)
1 29505U 06046A   26194.60643804  .00004920  00000+0  25078-3 0  9999
2 29505  97.6348 235.8743 0004412  66.4783 293.6913 15.17236496 76276
SHIJIAN-6 02B (SJ-6 02B)
1 29506U 06046B   26194.60469730  .00000772  00000+0  64433-4 0  9994
2 29506  97.7152 223.4998 0013580 341.8631  18.2107 15.01436693 74700
FGRST (GLAST)           
1 33053U 08029A   26193.89505711  .00002204  00000+0  74760-4 0  9995
2 33053  25.5828  25.9616 0007745 270.8522  89.1128 15.24068637999765
SDO                     
1 36395U 10005A   26194.20034537 -.00000107  00000+0  00000+0 0  9995
2 36395  34.7041  85.9474 0001955  51.9513 123.0341  1.00277100 60321
CRYOSAT 2               
1 36508U 10013A   26194.61577880  .00000124  00000+0  30123-4 0  9990
2 36508  92.0359 283.7266 0002368  98.5639 261.5837 14.51898004861912
X-SAT                   
1 37389U 11015C   26194.62267609  .00000130  00000+0  72845-4 0  9991
2 37389  98.3519 170.3889 0012701 266.0940  93.8788 14.25213892791446
GCOM-W1 (SHIZUKU)       
1 38337U 12025A   26194.41105181  .00000213  00000+0  57227-4 0  9999
2 38337  98.2024 134.5702 0001333  77.2653  33.1925 14.57089300752850
NUSTAR                  
1 38358U 12031A   26194.66668981  .00004671  00000+0  23377-3 0  9998
2 38358   6.0256 195.4812 0007272 153.6181 168.4088 15.09037024  1301
NEOSSAT                 
1 39089U 13009D   26194.48126559  .00000062  00000+0  36036-4 0  9993
2 39089  98.4188  13.8901 0011349 162.1759 197.9828 14.35835248700510
BRITE-AUSTRIA           
1 39091U 13009F   26194.46679952  .00000086  00000+0  43851-4 0  9993
2 39091  98.4006  13.2537 0010666 155.6045 204.5649 14.36552090700829
IRIS                    
1 39197U 13033A   26194.49480924  .00000522  00000+0  66006-4 0  9991
2 39197  97.9319  33.6889 0023224 230.8914 129.0237 14.85934939704286
HISAKI (SPRINT-A)       
1 39253U 13049A   26193.97917040  .00000078  00000+0  14580-4 0  9993
2 39253  29.7206  88.8790 0136944 225.9387 132.9837 13.55546585634927
CASSIOPE                
1 39265U 13055A   26194.51456766  .00021565 -53801-6  23124-3 0  9999
2 39265  80.9124  34.6894 0283196 333.6039  25.0990 15.27349248671689
STSAT-3                 
1 39422U 13066G   26194.61280674  .00001195  00000+0  93570-4 0  9995
2 39422  97.6186 164.0744 0008952 311.9811  48.0651 15.02879816688174
